APRIZESAT 2             
1 28366U 04025A   26174.96442039  .00000164  00000+0  64209-4 0  9998
2 28366  98.1020 340.5613 0104594 229.1600 130.0485 14.38038220152619
SAUDICOMSAT 1           
1 28369U 04025D   26175.30331946  .00000308  00000+0  81646-4 0  9998
2 28369  98.5770 185.6267 0032189   4.0954 356.0500 14.55478552165160
SAUDICOMSAT 2           
1 28370U 04025E   26175.30179066  .00000189  00000+0  60618-4 0  9996
2 28370  98.6640 187.7493 0054382 237.5068 122.0863 14.49984487161139
APRIZESAT 1             
1 28372U 04025G   26175.25576464  .00000224  00000+0  66972-4 0  9994
2 28372  98.6302 186.1738 0045450 132.7318 227.7716 14.51780389162938
NANOSAT-1               
1 28493U 04049B   26174.92917852  .00000809  00000+0  11379-3 0  9996
2 28493  98.2284 311.7552 0002698 270.7438  89.3464 14.80170718156442
SAUDICOMSAT 7           
1 31119U 07012C   26175.21061958  .00000389  00000+0  78714-4 0  9998
2 31119  98.3779 149.4860 0055806 173.1173 187.0809 14.66115680 23465
SAUDICOMSAT 6           
1 31121U 07012E   26174.86318819  .00000429  00000+0  91914-4 0  9994
2 31121  98.4100 142.5039 0070682 306.7275  52.7448 14.62564895 21169
SAUDICOMSAT 5           
1 31124U 07012H   26175.17425833  .00000558  00000+0  10446-3 0  9990
2 31124  98.3492 150.1945 0048696 103.2674 257.3968 14.68164155 24624
SAUDICOMSAT 3           
1 31125U 07012J   26174.91858219  .00000713  00000+0  12439-3 0  9997
2 31125  98.3145 150.4814 0039864  32.4873 327.8774 14.70715646 25819
SAUDICOMSAT 4           
1 31127U 07012L   26174.91859219  .00000343  00000+0  72846-4 0  9998
2 31127  98.3985 147.6264 0062239 236.7594 122.7633 14.64517474 22276
APRIZESAT 4             
1 35684U 09041D   26175.20248644  .00000515  00000+0  68179-4 0  9996
2 35684  98.1410 250.6628 0042053 299.7301  59.9730 14.83886973912401
APRIZESAT 3             
1 35686U 09041F   26175.25452858  .00001253  00000+0  11251-3 0  9995
2 35686  98.2074 328.8172 0062675  44.7718 315.8535 14.96262752917436
S-NET D                 
1 43186U 18014G   26174.99334955  .00004138  00000+0  21439-3 0  9990
2 43186  97.5358  79.7411 0008218   8.7119 351.4256 15.16727237459796
S-NET B                 
1 43187U 18014H   26175.20285968  .00004541  00000+0  23506-3 0  9990
2 43187  97.5364  79.9363 0008628   2.2761 357.8510 15.16699503459820
S-NET A                 
1 43188U 18014J   26175.19010870  .00004081  00000+0  21139-3 0  9996
2 43188  97.5375  80.1335 0008546   3.4432 356.6858 15.16737154459820
S-NET C                 
1 43189U 18014K   26175.20677126  .00004585  00000+0  23732-3 0  9992
2 43189  97.5391  80.2262 0009635 354.0800   6.0317 15.16691363458379
SALSAT                  
1 46495U 20068K   26175.27497564  .00006623  00000+0  23163-3 0  9993
2 46495  97.8854 178.7714 0007801 277.9982  82.0372 15.29885766316443
OOV-CUBE (TUBSAT-30)    
1 60240U 24128F   26175.17509553  .00001358  00000+0  11477-3 0  9994
2 60240  61.9924 201.2058 0043766 135.3131 225.1501 15.02794999107162
LPNTSAT-001 (IOD-1)     
1 68408U 26065A   26175.19332948  .00002277  00000+0  11312-3 0  9993
2 68408  97.4013  55.5545 0015908 346.2058  13.8739 15.18568421 13323
